IRIDIUM 146             
1 43254U 18030F   26180.38300286  .00000048  00000+0  10246-4 0  9995
2 43254  86.3966 285.3181 0002281  97.6050 262.5405 14.34217728431883
IRIDIUM 148             
1 43255U 18030G   26180.35129000 -.00000006  00000+0 -92522-5 0  9990
2 43255  86.3963 285.3747 0002220  95.6223 264.5226 14.34217456431917
IRIDIUM 142             
1 43256U 18030H   26180.31957694  .00000002  00000+0 -62585-5 0  9996
2 43256  86.3959 285.2764 0002185  99.6911 260.4531 14.34217484431879
IRIDIUM 150             
1 43257U 18030J   26180.35763204  .00000092  00000+0  25683-4 0  9998
2 43257  86.3966 285.3771 0002145  95.4571 264.6870 14.34217168431904
IRIDIUM 143             
1 43258U 18030K   26180.33860198  .00000241  00000+0  78866-4 0  9994
2 43258  86.3968 285.4781 0002206  98.0033 262.1413 14.34219476431831
IRIDIUM 161             
1 43478U 18047C   26179.81657482  .00000115  00000+0  28071-4 0  9990
2 43478  86.4483  83.6091 0002500  81.1688 278.9796 14.43278016426812
IRIDIUM 152             
1 43479U 18047D   26179.96248007 -.00000249  00000+0 -96019-4 0  9993
2 43479  86.3953  83.4088 0002175  81.8690 278.2753 14.34216617424178
IRIDIUM 147             
1 43480U 18047E   26179.96882163  .00000084  00000+0  23062-4 0  9995
2 43480  86.3956  83.4118 0002187  87.2255 272.9191 14.34218255424174
IRIDIUM 110             
1 43481U 18047F   26179.97516585  .00000021  00000+0  42068-6 0  9999
2 43481  86.3958  83.5014 0002448  77.9270 282.2200 14.34217492424162
IRIDIUM 162             
1 43482U 18047G   26179.81027460  .00000298  00000+0  82736-4 0  9992
2 43482  86.4479  83.5025 0002266  83.2246 276.9213 14.43280136426807
IRIDIUM 160             
1 43569U 18061A   26180.13030647  .00000007  00000+0 -47080-5 0  9995
2 43569  86.3949  51.8027 0002136  85.7414 274.4026 14.34217575415084
IRIDIUM 166             
1 43570U 18061B   26179.73706527  .00000044  00000+0  86465-5 0  9998
2 43570  86.3952  51.9179 0002187  88.9037 271.2409 14.34217809415058
IRIDIUM 158             
1 43571U 18061C   26179.70535248  .00000082  00000+0  22081-4 0  9991
2 43571  86.3949  51.9410 0002133  84.0050 276.1389 14.34217754415012
IRIDIUM 165             
1 43572U 18061D   26180.14933426  .00000043  00000+0  81841-5 0  9999
2 43572  86.3952  51.8019 0002146  89.8904 270.2538 14.34217461415102
IRIDIUM 155             
1 43573U 18061E   26179.69266729  .00000043  00000+0  81224-5 0  9998
2 43573  86.3949  51.8614 0002071  85.2834 274.8599 14.34217804415006
