{"fetchedAt":"2026-06-29T18:07:57.194Z","satellites":[{"id":"43254","name":"IRIDIUM 146","constellationId":"iridium","omm":{"OBJECT_NAME":"IRIDIUM 146","OBJECT_ID":"2018-030F","EPOCH":"2026-06-29T09:11:31.447104","MEAN_MOTION":14.34217728,"ECCENTRICITY":0.0002281,"INCLINATION":86.3966,"RA_OF_ASC_NODE":285.3181,"ARG_OF_PERICENTER":97.605,"MEAN_ANOMALY":262.5405,"EPHEMERIS_TYPE":0,"CLASSIFICATION_TYPE":"U","NORAD_CAT_ID":43254,"ELEMENT_SET_NO":999,"REV_AT_EPOCH":43188,"BSTAR":0.000010246,"MEAN_MOTION_DOT":4.8e-7,"MEAN_MOTION_DDOT":0}},{"id":"43255","name":"IRIDIUM 148","constellationId":"iridium","omm":{"OBJECT_NAME":"IRIDIUM 148","OBJECT_ID":"2018-030G","EPOCH":"2026-06-29T08:25:51.456000","MEAN_MOTION":14.34217456,"ECCENTRICITY":0.000222,"INCLINATION":86.3963,"RA_OF_ASC_NODE":285.3747,"ARG_OF_PERICENTER":95.6223,"MEAN_ANOMALY":264.5226,"EPHEMERIS_TYPE":0,"CLASSIFICATION_TYPE":"U","NORAD_CAT_ID":43255,"ELEMENT_SET_NO":999,"REV_AT_EPOCH":43191,"BSTAR":-0.0000092522,"MEAN_MOTION_DOT":-6e-8,"MEAN_MOTION_DDOT":0}},{"id":"43256","name":"IRIDIUM 142","constellationId":"iridium","omm":{"OBJECT_NAME":"IRIDIUM 142","OBJECT_ID":"2018-030H","EPOCH":"2026-06-29T07:40:11.447616","MEAN_MOTION":14.34217484,"ECCENTRICITY":0.0002185,"INCLINATION":86.3959,"RA_OF_ASC_NODE":285.2764,"ARG_OF_PERICENTER":99.6911,"MEAN_ANOMALY":260.4531,"EPHEMERIS_TYPE":0,"CLASSIFICATION_TYPE":"U","NORAD_CAT_ID":43256,"ELEMENT_SET_NO":999,"REV_AT_EPOCH":43187,"BSTAR":-0.0000062585,"MEAN_MOTION_DOT":2e-8,"MEAN_MOTION_DDOT":0}},{"id":"43257","name":"IRIDIUM 150","constellationId":"iridium","omm":{"OBJECT_NAME":"IRIDIUM 150","OBJECT_ID":"2018-030J","EPOCH":"2026-06-29T08:34:59.408256","MEAN_MOTION":14.34217168,"ECCENTRICITY":0.0002145,"INCLINATION":86.3966,"RA_OF_ASC_NODE":285.3771,"ARG_OF_PERICENTER":95.4571,"MEAN_ANOMALY":264.687,"EPHEMERIS_TYPE":0,"CLASSIFICATION_TYPE":"U","NORAD_CAT_ID":43257,"ELEMENT_SET_NO":999,"REV_AT_EPOCH":43190,"BSTAR":0.000025683,"MEAN_MOTION_DOT":9.2e-7,"MEAN_MOTION_DDOT":0}},{"id":"43258","name":"IRIDIUM 143","constellationId":"iridium","omm":{"OBJECT_NAME":"IRIDIUM 143","OBJECT_ID":"2018-030K","EPOCH":"2026-06-29T08:07:35.211072","MEAN_MOTION":14.34219476,"ECCENTRICITY":0.0002206,"INCLINATION":86.3968,"RA_OF_ASC_NODE":285.4781,"ARG_OF_PERICENTER":98.0033,"MEAN_ANOMALY":262.1413,"EPHEMERIS_TYPE":0,"CLASSIFICATION_TYPE":"U","NORAD_CAT_ID":43258,"ELEMENT_SET_NO":999,"REV_AT_EPOCH":43183,"BSTAR":0.000078866,"MEAN_MOTION_DOT":0.00000241,"MEAN_MOTION_DDOT":0}},{"id":"43478","name":"IRIDIUM 161","constellationId":"iridium","omm":{"OBJECT_NAME":"IRIDIUM 161","OBJECT_ID":"2018-047C","EPOCH":"2026-06-28T19:35:52.064448","MEAN_MOTION":14.43278016,"ECCENTRICITY":0.00025008,"INCLINATION":86.4483,"RA_OF_ASC_NODE":83.6091,"ARG_OF_PERICENTER":81.1688,"MEAN_ANOMALY":278.9796,"EPHEMERIS_TYPE":0,"CLASSIFICATION_TYPE":"U","NORAD_CAT_ID":43478,"ELEMENT_SET_NO":999,"REV_AT_EPOCH":42681,"BSTAR":0.000028070897,"MEAN_MOTION_DOT":0.00000115,"MEAN_MOTION_DDOT":0}},{"id":"43479","name":"IRIDIUM 152","constellationId":"iridium","omm":{"OBJECT_NAME":"IRIDIUM 152","OBJECT_ID":"2018-047D","EPOCH":"2026-06-28T23:05:58.278048","MEAN_MOTION":14.34216617,"ECCENTRICITY":0.00021751,"INCLINATION":86.3953,"RA_OF_ASC_NODE":83.4088,"ARG_OF_PERICENTER":81.869,"MEAN_ANOMALY":278.2753,"EPHEMERIS_TYPE":0,"CLASSIFICATION_TYPE":"U","NORAD_CAT_ID":43479,"ELEMENT_SET_NO":999,"REV_AT_EPOCH":42417,"BSTAR":-0.000096018921,"MEAN_MOTION_DOT":-0.00000249,"MEAN_MOTION_DDOT":0}},{"id":"43480","name":"IRIDIUM 147","constellationId":"iridium","omm":{"OBJECT_NAME":"IRIDIUM 147","OBJECT_ID":"2018-047E","EPOCH":"2026-06-28T23:15:06.188832","MEAN_MOTION":14.34218255,"ECCENTRICITY":0.00021879,"INCLINATION":86.3956,"RA_OF_ASC_NODE":83.4118,"ARG_OF_PERICENTER":87.2255,"MEAN_ANOMALY":272.9191,"EPHEMERIS_TYPE":0,"CLASSIFICATION_TYPE":"U","NORAD_CAT_ID":43480,"ELEMENT_SET_NO":999,"REV_AT_EPOCH":42417,"BSTAR":0.000023061742,"MEAN_MOTION_DOT":8.4e-7,"MEAN_MOTION_DDOT":0}},{"id":"43481","name":"IRIDIUM 110","constellationId":"iridium","omm":{"OBJECT_NAME":"IRIDIUM 110","OBJECT_ID":"2018-047F","EPOCH":"2026-06-28T23:24:14.329440","MEAN_MOTION":14.34217492,"ECCENTRICITY":0.00024484,"INCLINATION":86.3958,"RA_OF_ASC_NODE":83.5014,"ARG_OF_PERICENTER":77.927,"MEAN_ANOMALY":282.22,"EPHEMERIS_TYPE":0,"CLASSIFICATION_TYPE":"U","NORAD_CAT_ID":43481,"ELEMENT_SET_NO":999,"REV_AT_EPOCH":42416,"BSTAR":4.20681e-7,"MEAN_MOTION_DOT":2.1e-7,"MEAN_MOTION_DDOT":0}},{"id":"43482","name":"IRIDIUM 162","constellationId":"iridium","omm":{"OBJECT_NAME":"IRIDIUM 162","OBJECT_ID":"2018-047G","EPOCH":"2026-06-28T19:26:47.725440","MEAN_MOTION":14.43280136,"ECCENTRICITY":0.00022661,"INCLINATION":86.4479,"RA_OF_ASC_NODE":83.5025,"ARG_OF_PERICENTER":83.2246,"MEAN_ANOMALY":276.9213,"EPHEMERIS_TYPE":0,"CLASSIFICATION_TYPE":"U","NORAD_CAT_ID":43482,"ELEMENT_SET_NO":999,"REV_AT_EPOCH":42680,"BSTAR":0.000082736425,"MEAN_MOTION_DOT":0.00000298,"MEAN_MOTION_DDOT":0}},{"id":"43569","name":"IRIDIUM 160","constellationId":"iridium","omm":{"OBJECT_NAME":"IRIDIUM 160","OBJECT_ID":"2018-061A","EPOCH":"2026-06-29T03:07:38.479008","MEAN_MOTION":14.34217575,"ECCENTRICITY":0.0002136,"INCLINATION":86.3949,"RA_OF_ASC_NODE":51.8027,"ARG_OF_PERICENTER":85.7414,"MEAN_ANOMALY":274.4026,"EPHEMERIS_TYPE":0,"CLASSIFICATION_TYPE":"U","NORAD_CAT_ID":43569,"ELEMENT_SET_NO":999,"REV_AT_EPOCH":41508,"BSTAR":-0.000004708,"MEAN_MOTION_DOT":7e-8,"MEAN_MOTION_DDOT":0}},{"id":"43570","name":"IRIDIUM 166","constellationId":"iridium","omm":{"OBJECT_NAME":"IRIDIUM 166","OBJECT_ID":"2018-061B","EPOCH":"2026-06-28T17:41:22.439328","MEAN_MOTION":14.34217809,"ECCENTRICITY":0.00021872,"INCLINATION":86.3952,"RA_OF_ASC_NODE":51.9179,"ARG_OF_PERICENTER":88.9037,"MEAN_ANOMALY":271.2409,"EPHEMERIS_TYPE":0,"CLASSIFICATION_TYPE":"U","NORAD_CAT_ID":43570,"ELEMENT_SET_NO":999,"REV_AT_EPOCH":41505,"BSTAR":0.000008646536,"MEAN_MOTION_DOT":4.4e-7,"MEAN_MOTION_DDOT":0}},{"id":"43571","name":"IRIDIUM 158","constellationId":"iridium","omm":{"OBJECT_NAME":"IRIDIUM 158","OBJECT_ID":"2018-061C","EPOCH":"2026-06-28T16:55:42.454272","MEAN_MOTION":14.34217754,"ECCENTRICITY":0.00021337,"INCLINATION":86.3949,"RA_OF_ASC_NODE":51.941,"ARG_OF_PERICENTER":84.005,"MEAN_ANOMALY":276.1389,"EPHEMERIS_TYPE":0,"CLASSIFICATION_TYPE":"U","NORAD_CAT_ID":43571,"ELEMENT_SET_NO":999,"REV_AT_EPOCH":41501,"BSTAR":0.000022081013,"MEAN_MOTION_DOT":8.2e-7,"MEAN_MOTION_DDOT":0}},{"id":"43572","name":"IRIDIUM 165","constellationId":"iridium","omm":{"OBJECT_NAME":"IRIDIUM 165","OBJECT_ID":"2018-061D","EPOCH":"2026-06-29T03:35:02.480064","MEAN_MOTION":14.34217461,"ECCENTRICITY":0.0002146,"INCLINATION":86.3952,"RA_OF_ASC_NODE":51.8019,"ARG_OF_PERICENTER":89.8904,"MEAN_ANOMALY":270.2538,"EPHEMERIS_TYPE":0,"CLASSIFICATION_TYPE":"U","NORAD_CAT_ID":43572,"ELEMENT_SET_NO":999,"REV_AT_EPOCH":41510,"BSTAR":0.0000081841,"MEAN_MOTION_DOT":4.3e-7,"MEAN_MOTION_DDOT":0}},{"id":"43573","name":"IRIDIUM 155","constellationId":"iridium","omm":{"OBJECT_NAME":"IRIDIUM 155","OBJECT_ID":"2018-061E","EPOCH":"2026-06-28T16:37:26.453856","MEAN_MOTION":14.34217804,"ECCENTRICITY":0.00020712,"INCLINATION":86.3949,"RA_OF_ASC_NODE":51.8614,"ARG_OF_PERICENTER":85.2834,"MEAN_ANOMALY":274.8599,"EPHEMERIS_TYPE":0,"CLASSIFICATION_TYPE":"U","NORAD_CAT_ID":43573,"ELEMENT_SET_NO":999,"REV_AT_EPOCH":41500,"BSTAR":0.000008122356,"MEAN_MOTION_DOT":4.3e-7,"MEAN_MOTION_DDOT":0}}]}